CCSDS_OMM_VERS = 2.0
CREATION_DATE  = 
ORIGINATOR     = 

OBJECT_NAME    = ALOS (DAICHI)
OBJECT_ID      = 2006-002A
CENTER_NAME    = EARTH
REF_FRAME      = TEME
TIME_SYSTEM    = UTC
MEAN_ELEMENT_THEORY = SGP/SGP4

EPOCH          = 2026-01-30T07:26:31.856352
MEAN_MOTION    = 14.69676316
ECCENTRICITY   = .00021324
INCLINATION    = 98.1152
RA_OF_ASC_NODE = 346.4780
ARG_OF_PERICENTER = 74.8543
MEAN_ANOMALY   = 285.2898

EPHEMERIS_TYPE = 0
CLASSIFICATION_TYPE = U
NORAD_CAT_ID   = 28931
ELEMENT_SET_NO = 999
REV_AT_EPOCH   = 6784
BSTAR          = .37060112E-3
MEAN_MOTION_DOT = .2157E-4
MEAN_MOTION_DDOT = 0

CCSDS_OMM_VERS = 2.0
CREATION_DATE  = 
ORIGINATOR     = 

OBJECT_NAME    = H-2A R/B
OBJECT_ID      = 2006-002B
CENTER_NAME    = EARTH
REF_FRAME      = TEME
TIME_SYSTEM    = UTC
MEAN_ELEMENT_THEORY = SGP/SGP4

EPOCH          = 2026-01-30T03:05:54.278880
MEAN_MOTION    = 15.15647210
ECCENTRICITY   = .00535511
INCLINATION    = 98.2342
RA_OF_ASC_NODE = 173.8799
ARG_OF_PERICENTER = 13.6619
MEAN_ANOMALY   = 346.6046

EPHEMERIS_TYPE = 0
CLASSIFICATION_TYPE = U
NORAD_CAT_ID   = 28932
ELEMENT_SET_NO = 999
REV_AT_EPOCH   = 8859
BSTAR          = .589195E-3
MEAN_MOTION_DOT = .11547E-3
MEAN_MOTION_DDOT = 0

CCSDS_OMM_VERS = 2.0
CREATION_DATE  = 
ORIGINATOR     = 

OBJECT_NAME    = RESURS-DK 1
OBJECT_ID      = 2006-021A
CENTER_NAME    = EARTH
REF_FRAME      = TEME
TIME_SYSTEM    = UTC
MEAN_ELEMENT_THEORY = SGP/SGP4

EPOCH          = 2026-01-30T05:55:11.130240
MEAN_MOTION    = 15.12502562
ECCENTRICITY   = .00051335
INCLINATION    = 69.9348
RA_OF_ASC_NODE = 336.4457
ARG_OF_PERICENTER = 212.7287
MEAN_ANOMALY   = 147.3561

EPHEMERIS_TYPE = 0
CLASSIFICATION_TYPE = U
NORAD_CAT_ID   = 29228
ELEMENT_SET_NO = 999
REV_AT_EPOCH   = 8171
BSTAR          = .25365133E-3
MEAN_MOTION_DOT = .4322E-4
MEAN_MOTION_DDOT = 0

CCSDS_OMM_VERS = 2.0
CREATION_DATE  = 
ORIGINATOR     = 

OBJECT_NAME    = CZ-4B R/B
OBJECT_ID      = 2006-046C
CENTER_NAME    = EARTH
REF_FRAME      = TEME
TIME_SYSTEM    = UTC
MEAN_ELEMENT_THEORY = SGP/SGP4

EPOCH          = 2026-01-30T01:55:05.603808
MEAN_MOTION    = 15.16472838
ECCENTRICITY   = .00346046
INCLINATION    = 97.5671
RA_OF_ASC_NODE = 75.0896
ARG_OF_PERICENTER = 43.4319
MEAN_ANOMALY   = 316.9630

EPHEMERIS_TYPE = 0
CLASSIFICATION_TYPE = U
NORAD_CAT_ID   = 29507
ELEMENT_SET_NO = 999
REV_AT_EPOCH   = 5419
BSTAR          = .39478223E-3
MEAN_MOTION_DOT = .7735E-4
MEAN_MOTION_DDOT = 0

CCSDS_OMM_VERS = 2.0
CREATION_DATE  = 
ORIGINATOR     = 

OBJECT_NAME    = CZ-2C R/B
OBJECT_ID      = 2007-010B
CENTER_NAME    = EARTH
REF_FRAME      = TEME
TIME_SYSTEM    = UTC
MEAN_ELEMENT_THEORY = SGP/SGP4

EPOCH          = 2026-01-30T06:14:24.246240
MEAN_MOTION    = 14.20232346
ECCENTRICITY   = .00597399
INCLINATION    = 98.3970
RA_OF_ASC_NODE = 145.4695
ARG_OF_PERICENTER = 46.7589
MEAN_ANOMALY   = 313.8553

EPHEMERIS_TYPE = 0
CLASSIFICATION_TYPE = U
NORAD_CAT_ID   = 31114
ELEMENT_SET_NO = 999
REV_AT_EPOCH   = 97426
BSTAR          = .9121276E-4
MEAN_MOTION_DOT = .158E-5
MEAN_MOTION_DDOT = 0

CCSDS_OMM_VERS = 2.0
CREATION_DATE  = 
ORIGINATOR     = 

OBJECT_NAME    = COSMO-SKYMED 1
OBJECT_ID      = 2007-023A
CENTER_NAME    = EARTH
REF_FRAME      = TEME
TIME_SYSTEM    = UTC
MEAN_ELEMENT_THEORY = SGP/SGP4

EPOCH          = 2026-01-30T06:45:16.982784
MEAN_MOTION    = 14.96223703
ECCENTRICITY   = .00015355
INCLINATION    = 97.8859
RA_OF_ASC_NODE = 221.0160
ARG_OF_PERICENTER = 83.4024
MEAN_ANOMALY   = 276.7371

EPHEMERIS_TYPE = 0
CLASSIFICATION_TYPE = U
NORAD_CAT_ID   = 31598
ELEMENT_SET_NO = 999
REV_AT_EPOCH   = 916
BSTAR          = .52868063E-3
MEAN_MOTION_DOT = .5906E-4
MEAN_MOTION_DDOT = 0

CCSDS_OMM_VERS = 2.0
CREATION_DATE  = 
ORIGINATOR     = 

OBJECT_NAME    = COSMOS 2428
OBJECT_ID      = 2007-029A
CENTER_NAME    = EARTH
REF_FRAME      = TEME
TIME_SYSTEM    = UTC
MEAN_ELEMENT_THEORY = SGP/SGP4

EPOCH          = 2026-01-30T03:55:34.535424
MEAN_MOTION    = 14.12924895
ECCENTRICITY   = .00066527
INCLINATION    = 70.9401
RA_OF_ASC_NODE = 284.2165
ARG_OF_PERICENTER = 320.1518
MEAN_ANOMALY   = 39.9114

EPHEMERIS_TYPE = 0
CLASSIFICATION_TYPE = U
NORAD_CAT_ID   = 31792
ELEMENT_SET_NO = 999
REV_AT_EPOCH   = 95865
BSTAR          = .25187879E-3
MEAN_MOTION_DOT = .421E-5
MEAN_MOTION_DDOT = 0

CCSDS_OMM_VERS = 2.0
CREATION_DATE  = 
ORIGINATOR     = 

OBJECT_NAME    = SL-16 R/B
OBJECT_ID      = 2007-029B
CENTER_NAME    = EARTH
REF_FRAME      = TEME
TIME_SYSTEM    = UTC
MEAN_ELEMENT_THEORY = SGP/SGP4

EPOCH          = 2026-01-30T01:10:53.415840
MEAN_MOTION    = 14.14823314
ECCENTRICITY   = .00018383
INCLINATION    = 70.9730
RA_OF_ASC_NODE = 253.6096
ARG_OF_PERICENTER = 271.7815
MEAN_ANOMALY   = 238.2178

EPHEMERIS_TYPE = 0
CLASSIFICATION_TYPE = U
NORAD_CAT_ID   = 31793
ELEMENT_SET_NO = 999
REV_AT_EPOCH   = 95990
BSTAR          = .12688244E-3
MEAN_MOTION_DOT = .197E-5
MEAN_MOTION_DDOT = 0

CCSDS_OMM_VERS = 2.0
CREATION_DATE  = 
ORIGINATOR     = 

OBJECT_NAME    = KORONAS-FOTON
OBJECT_ID      = 2009-003A
CENTER_NAME    = EARTH
REF_FRAME      = TEME
TIME_SYSTEM    = UTC
MEAN_ELEMENT_THEORY = SGP/SGP4

EPOCH          = 2026-01-30T05:42:53.982720
MEAN_MOTION    = 15.42331884
ECCENTRICITY   = .00092909
INCLINATION    = 82.4329
RA_OF_ASC_NODE = 315.8163
ARG_OF_PERICENTER = 303.0403
MEAN_ANOMALY   = 56.9951

EPHEMERIS_TYPE = 0
CLASSIFICATION_TYPE = U
NORAD_CAT_ID   = 33504
ELEMENT_SET_NO = 999
REV_AT_EPOCH   = 93981
BSTAR          = .31387353E-3
MEAN_MOTION_DOT = .13585E-3
MEAN_MOTION_DDOT = 0

CCSDS_OMM_VERS = 2.0
CREATION_DATE  = 
ORIGINATOR     = 

OBJECT_NAME    = CZ-2C R/B
OBJECT_ID      = 2011-030B
CENTER_NAME    = EARTH
REF_FRAME      = TEME
TIME_SYSTEM    = UTC
MEAN_ELEMENT_THEORY = SGP/SGP4

EPOCH          = 2026-01-29T21:40:08.007744
MEAN_MOTION    = 14.81072705
ECCENTRICITY   = .00540221
INCLINATION    = 97.8473
RA_OF_ASC_NODE = 347.9658
ARG_OF_PERICENTER = 115.8395
MEAN_ANOMALY   = 310.1402

EPHEMERIS_TYPE = 0
CLASSIFICATION_TYPE = U
NORAD_CAT_ID   = 37731
ELEMENT_SET_NO = 999
REV_AT_EPOCH   = 78435
BSTAR          = .27892156E-3
MEAN_MOTION_DOT = .2165E-4
MEAN_MOTION_DDOT = 0

CCSDS_OMM_VERS = 2.0
CREATION_DATE  = 
ORIGINATOR     = 

OBJECT_NAME    = H-2A R/B
OBJECT_ID      = 2012-025E
CENTER_NAME    = EARTH
REF_FRAME      = TEME
TIME_SYSTEM    = UTC
MEAN_ELEMENT_THEORY = SGP/SGP4

EPOCH          = 2026-01-30T05:50:48.716160
MEAN_MOTION    = 14.94825604
ECCENTRICITY   = .00464777
INCLINATION    = 98.4659
RA_OF_ASC_NODE = 354.2438
ARG_OF_PERICENTER = 78.9240
MEAN_ANOMALY   = 281.7200

EPHEMERIS_TYPE = 0
CLASSIFICATION_TYPE = U
NORAD_CAT_ID   = 38341
ELEMENT_SET_NO = 999
REV_AT_EPOCH   = 74247
BSTAR          = .51042918E-3
MEAN_MOTION_DOT = .561E-4
MEAN_MOTION_DDOT = 0

CCSDS_OMM_VERS = 2.0
CREATION_DATE  = 
ORIGINATOR     = 

OBJECT_NAME    = SHIJIAN-16 (SJ-16)
OBJECT_ID      = 2013-057A
CENTER_NAME    = EARTH
REF_FRAME      = TEME
TIME_SYSTEM    = UTC
MEAN_ELEMENT_THEORY = SGP/SGP4

EPOCH          = 2026-01-30T06:44:16.592640
MEAN_MOTION    = 14.92215999
ECCENTRICITY   = .00174595
INCLINATION    = 74.9722
RA_OF_ASC_NODE = 257.7960
ARG_OF_PERICENTER = 207.3164
MEAN_ANOMALY   = 152.7108

EPHEMERIS_TYPE = 0
CLASSIFICATION_TYPE = U
NORAD_CAT_ID   = 39358
ELEMENT_SET_NO = 999
REV_AT_EPOCH   = 66577
BSTAR          = .16058029E-3
MEAN_MOTION_DOT = .1612E-4
MEAN_MOTION_DDOT = 0

