ALOS (DAICHI)           
1 28931U 06002A   26030.31009093  .00002157  00000+0  37060-3 0  9990
2 28931  98.1152 346.4780 0002132  74.8543 285.2898 14.69676316 67848
H-2A R/B                
1 28932U 06002B   26030.12910045  .00011547  00000+0  58919-3 0  9997
2 28932  98.2342 173.8799 0053551  13.6619 346.6046 15.15647210 88594
RESURS-DK 1             
1 29228U 06021A   26030.24665660  .00004322  00000+0  25365-3 0  9992
2 29228  69.9348 336.4457 0005133 212.7287 147.3561 15.12502562 81710
CZ-4B R/B               
1 29507U 06046C   26030.07992597  .00007735  00000+0  39478-3 0  9993
2 29507  97.5671  75.0896 0034604  43.4319 316.9630 15.16472838 54198
CZ-2C R/B               
1 31114U 07010B   26030.26000285  .00000158  00000+0  91213-4 0  9995
2 31114  98.3970 145.4695 0059739  46.7589 313.8553 14.20232346974267
COSMO-SKYMED 1          
1 31598U 07023A   26030.28144656  .00005906  00000+0  52868-3 0  9996
2 31598  97.8859 221.0160 0001535  83.4024 276.7371 14.96223703  9167
COSMOS 2428             
1 31792U 07029A   26030.16359416  .00000421  00000+0  25188-3 0  9999
2 31792  70.9401 284.2165 0006652 320.1518  39.9114 14.12924895958657
SL-16 R/B               
1 31793U 07029B   26030.04922935  .00000197  00000+0  12688-3 0  9990
2 31793  70.9730 253.6096 0001838 271.7815 238.2178 14.14823314959907
KORONAS-FOTON           
1 33504U 09003A   26030.23812480  .00013585  00000+0  31387-3 0  9992
2 33504  82.4329 315.8163 0009290 303.0403  56.9951 15.42331884939819
CZ-2C R/B               
1 37731U 11030B   26029.90287046  .00002165  00000+0  27892-3 0  9995
2 37731  97.8473 347.9658 0054022 115.8395 310.1402 14.81072705784351
H-2A R/B                
1 38341U 12025E   26030.24361940  .00005610  00000+0  51043-3 0  9996
2 38341  98.4659 354.2438 0046477  78.9240 281.7200 14.94825604742476
SHIJIAN-16 (SJ-16)      
1 39358U 13057A   26030.28074760  .00001612  00000+0  16058-3 0  9991
2 39358  74.9722 257.7960 0017459 207.3164 152.7108 14.92215999665772
